STARLINK-31102          
1 58715U 24002L   26068.76178127  .00002101  00000+0  83086-4 0  9997
2 58715  53.1590 229.7879 0001240  98.4344 261.6797 15.30183866122020
XCUBE-1                 
1 62400U 24247Z   26068.48297321  .00009773  00000+0  36224-3 0  9994
2 62400  44.9938 117.7807 0005235 331.1499  28.9094 15.27910558 67702
